<?xml version="1.0" encoding="UTF-8"?>
<ndm xmlns:xsi="http://www.w3.org/2001/XMLSchema-instance" xsi:noNamespaceSchemaLocation="https://sanaregistry.org/r/ndmxml_unqualified/ndmxml-2.0.0-master-2.0.xsd">
<omm id="CCSDS_OMM_VERS" version="2.0">
<header><CREATION_DATE/><ORIGINATOR/></header><body><segment><metadata><OBJECT_NAME>ONEWEB-0194</OBJECT_NAME><OBJECT_ID>2021-031AD</OBJECT_ID><CENTER_NAME>EARTH</CENTER_NAME><REF_FRAME>TEME</REF_FRAME><TIME_SYSTEM>UTC</TIME_SYSTEM><MEAN_ELEMENT_THEORY>SGP4</MEAN_ELEMENT_THEORY></metadata><data><meanElements><EPOCH>2025-04-26T05:35:07.232640</EPOCH><MEAN_MOTION>13.14502153</MEAN_MOTION><ECCENTRICITY>.0001768</ECCENTRICITY><INCLINATION>87.9087</INCLINATION><RA_OF_ASC_NODE>12.6334</RA_OF_ASC_NODE><ARG_OF_PERICENTER>71.7398</ARG_OF_PERICENTER><MEAN_ANOMALY>288.3924</MEAN_ANOMALY></meanElements><tleParameters><EPHEMERIS_TYPE>0</EPHEMERIS_TYPE><CLASSIFICATION_TYPE>U</CLASSIFICATION_TYPE><NORAD_CAT_ID>48237</NORAD_CAT_ID><ELEMENT_SET_NO>999</ELEMENT_SET_NO><REV_AT_EPOCH>19358</REV_AT_EPOCH><BSTAR>.52375E-3</BSTAR><MEAN_MOTION_DOT>.207E-5</MEAN_MOTION_DOT><MEAN_MOTION_DDOT>0</MEAN_MOTION_DDOT></tleParameters></data></segment></body></omm>
<omm id="CCSDS_OMM_VERS" version="2.0">
<header><CREATION_DATE/><ORIGINATOR/></header><body><segment><metadata><OBJECT_NAME>ONEWEB-0193</OBJECT_NAME><OBJECT_ID>2021-031AE</OBJECT_ID><CENTER_NAME>EARTH</CENTER_NAME><REF_FRAME>TEME</REF_FRAME><TIME_SYSTEM>UTC</TIME_SYSTEM><MEAN_ELEMENT_THEORY>SGP4</MEAN_ELEMENT_THEORY></metadata><data><meanElements><EPOCH>2025-04-25T22:39:31.183488</EPOCH><MEAN_MOTION>13.14501903</MEAN_MOTION><ECCENTRICITY>.0001639</ECCENTRICITY><INCLINATION>87.9090</INCLINATION><RA_OF_ASC_NODE>12.6984</RA_OF_ASC_NODE><ARG_OF_PERICENTER>78.5971</ARG_OF_PERICENTER><MEAN_ANOMALY>281.5342</MEAN_ANOMALY></meanElements><tleParameters><EPHEMERIS_TYPE>0</EPHEMERIS_TYPE><CLASSIFICATION_TYPE>U</CLASSIFICATION_TYPE><NORAD_CAT_ID>48238</NORAD_CAT_ID><ELEMENT_SET_NO>999</ELEMENT_SET_NO><REV_AT_EPOCH>19349</REV_AT_EPOCH><BSTAR>.28322E-3</BSTAR><MEAN_MOTION_DOT>.118E-5</MEAN_MOTION_DOT><MEAN_MOTION_DDOT>0</MEAN_MOTION_DDOT></tleParameters></data></segment></body></omm>
<omm id="CCSDS_OMM_VERS" version="2.0">
<header><CREATION_DATE/><ORIGINATOR/></header><body><segment><metadata><OBJECT_NAME>ONEWEB-0191</OBJECT_NAME><OBJECT_ID>2021-031AF</OBJECT_ID><CENTER_NAME>EARTH</CENTER_NAME><REF_FRAME>TEME</REF_FRAME><TIME_SYSTEM>UTC</TIME_SYSTEM><MEAN_ELEMENT_THEORY>SGP4</MEAN_ELEMENT_THEORY></metadata><data><meanElements><EPOCH>2025-04-26T09:53:09.600288</EPOCH><MEAN_MOTION>13.14503111</MEAN_MOTION><ECCENTRICITY>.0001591</ECCENTRICITY><INCLINATION>87.9085</INCLINATION><RA_OF_ASC_NODE>12.5799</RA_OF_ASC_NODE><ARG_OF_PERICENTER>73.1244</ARG_OF_PERICENTER><MEAN_ANOMALY>287.0060</MEAN_ANOMALY></meanElements><tleParameters><EPHEMERIS_TYPE>0</EPHEMERIS_TYPE><CLASSIFICATION_TYPE>U</CLASSIFICATION_TYPE><NORAD_CAT_ID>48239</NORAD_CAT_ID><ELEMENT_SET_NO>999</ELEMENT_SET_NO><REV_AT_EPOCH>19341</REV_AT_EPOCH><BSTAR>.74499E-4</BSTAR><MEAN_MOTION_DOT>.4E-6</MEAN_MOTION_DOT><MEAN_MOTION_DDOT>0</MEAN_MOTION_DDOT></tleParameters></data></segment></body></omm>
<omm id="CCSDS_OMM_VERS" version="2.0">
<header><CREATION_DATE/><ORIGINATOR/></header><body><segment><metadata><OBJECT_NAME>ONEWEB-0195</OBJECT_NAME><OBJECT_ID>2021-031AG</OBJECT_ID><CENTER_NAME>EARTH</CENTER_NAME><REF_FRAME>TEME</REF_FRAME><TIME_SYSTEM>UTC</TIME_SYSTEM><MEAN_ELEMENT_THEORY>SGP4</MEAN_ELEMENT_THEORY></metadata><data><meanElements><EPOCH>2025-04-26T11:09:41.065632</EPOCH><MEAN_MOTION>13.14502511</MEAN_MOTION><ECCENTRICITY>.0001435</ECCENTRICITY><INCLINATION>87.9084</INCLINATION><RA_OF_ASC_NODE>12.5673</RA_OF_ASC_NODE><ARG_OF_PERICENTER>90.5731</ARG_OF_PERICENTER><MEAN_ANOMALY>269.5563</MEAN_ANOMALY></meanElements><tleParameters><EPHEMERIS_TYPE>0</EPHEMERIS_TYPE><CLASSIFICATION_TYPE>U</CLASSIFICATION_TYPE><NORAD_CAT_ID>48240</NORAD_CAT_ID><ELEMENT_SET_NO>999</ELEMENT_SET_NO><REV_AT_EPOCH>19340</REV_AT_EPOCH><BSTAR>.6854E-3</BSTAR><MEAN_MOTION_DOT>.267E-5</MEAN_MOTION_DOT><MEAN_MOTION_DDOT>0</MEAN_MOTION_DDOT></tleParameters></data></segment></body></omm>
<omm id="CCSDS_OMM_VERS" version="2.0">
<header><CREATION_DATE/><ORIGINATOR/></header><body><segment><metadata><OBJECT_NAME>ONEWEB-0201</OBJECT_NAME><OBJECT_ID>2021-031AH</OBJECT_ID><CENTER_NAME>EARTH</CENTER_NAME><REF_FRAME>TEME</REF_FRAME><TIME_SYSTEM>UTC</TIME_SYSTEM><MEAN_ELEMENT_THEORY>SGP4</MEAN_ELEMENT_THEORY></metadata><data><meanElements><EPOCH>2025-04-26T05:23:53.096640</EPOCH><MEAN_MOTION>13.14501131</MEAN_MOTION><ECCENTRICITY>.0001884</ECCENTRICITY><INCLINATION>87.9087</INCLINATION><RA_OF_ASC_NODE>12.6595</RA_OF_ASC_NODE><ARG_OF_PERICENTER>87.2909</ARG_OF_PERICENTER><MEAN_ANOMALY>272.8437</MEAN_ANOMALY></meanElements><tleParameters><EPHEMERIS_TYPE>0</EPHEMERIS_TYPE><CLASSIFICATION_TYPE>U</CLASSIFICATION_TYPE><NORAD_CAT_ID>48241</NORAD_CAT_ID><ELEMENT_SET_NO>999</ELEMENT_SET_NO><REV_AT_EPOCH>19360</REV_AT_EPOCH><BSTAR>.43465E-3</BSTAR><MEAN_MOTION_DOT>.174E-5</MEAN_MOTION_DOT><MEAN_MOTION_DDOT>0</MEAN_MOTION_DDOT></tleParameters></data></segment></body></omm>
<omm id="CCSDS_OMM_VERS" version="2.0">
<header><CREATION_DATE/><ORIGINATOR/></header><body><segment><metadata><OBJECT_NAME>ONEWEB-0207</OBJECT_NAME><OBJECT_ID>2021-031AJ</OBJECT_ID><CENTER_NAME>EARTH</CENTER_NAME><REF_FRAME>TEME</REF_FRAME><TIME_SYSTEM>UTC</TIME_SYSTEM><MEAN_ELEMENT_THEORY>SGP4</MEAN_ELEMENT_THEORY></metadata><data><meanElements><EPOCH>2025-04-26T10:23:58.053120</EPOCH><MEAN_MOTION>13.14501635</MEAN_MOTION><ECCENTRICITY>.000201</ECCENTRICITY><INCLINATION>87.9090</INCLINATION><RA_OF_ASC_NODE>12.5803</RA_OF_ASC_NODE><ARG_OF_PERICENTER>84.6882</ARG_OF_PERICENTER><MEAN_ANOMALY>275.4477</MEAN_ANOMALY></meanElements><tleParameters><EPHEMERIS_TYPE>0</EPHEMERIS_TYPE><CLASSIFICATION_TYPE>U</CLASSIFICATION_TYPE><NORAD_CAT_ID>48242</NORAD_CAT_ID><ELEMENT_SET_NO>999</ELEMENT_SET_NO><REV_AT_EPOCH>19354</REV_AT_EPOCH><BSTAR>-.7631E-3</BSTAR><MEAN_MOTION_DOT>-.27E-5</MEAN_MOTION_DOT><MEAN_MOTION_DDOT>0</MEAN_MOTION_DDOT></tleParameters></data></segment></body></omm>
<omm id="CCSDS_OMM_VERS" version="2.0">
<header><CREATION_DATE/><ORIGINATOR/></header><body><segment><metadata><OBJECT_NAME>ONEWEB-0208</OBJECT_NAME><OBJECT_ID>2021-031AK</OBJECT_ID><CENTER_NAME>EARTH</CENTER_NAME><REF_FRAME>TEME</REF_FRAME><TIME_SYSTEM>UTC</TIME_SYSTEM><MEAN_ELEMENT_THEORY>SGP4</MEAN_ELEMENT_THEORY></metadata><data><meanElements><EPOCH>2025-04-25T23:00:03.709728</EPOCH><MEAN_MOTION>13.14501414</MEAN_MOTION><ECCENTRICITY>.0001661</ECCENTRICITY><INCLINATION>87.9091</INCLINATION><RA_OF_ASC_NODE>12.6883</RA_OF_ASC_NODE><ARG_OF_PERICENTER>83.4863</ARG_OF_PERICENTER><MEAN_ANOMALY>276.6456</MEAN_ANOMALY></meanElements><tleParameters><EPHEMERIS_TYPE>0</EPHEMERIS_TYPE><CLASSIFICATION_TYPE>U</CLASSIFICATION_TYPE><NORAD_CAT_ID>48243</NORAD_CAT_ID><ELEMENT_SET_NO>999</ELEMENT_SET_NO><REV_AT_EPOCH>19349</REV_AT_EPOCH><BSTAR>-.32577E-3</BSTAR><MEAN_MOTION_DOT>-.108E-5</MEAN_MOTION_DOT><MEAN_MOTION_DDOT>0</MEAN_MOTION_DDOT></tleParameters></data></segment></body></omm>
<omm id="CCSDS_OMM_VERS" version="2.0">
<header><CREATION_DATE/><ORIGINATOR/></header><body><segment><metadata><OBJECT_NAME>ONEWEB-0200</OBJECT_NAME><OBJECT_ID>2021-031AL</OBJECT_ID><CENTER_NAME>EARTH</CENTER_NAME><REF_FRAME>TEME</REF_FRAME><TIME_SYSTEM>UTC</TIME_SYSTEM><MEAN_ELEMENT_THEORY>SGP4</MEAN_ELEMENT_THEORY></metadata><data><meanElements><EPOCH>2025-04-26T10:54:49.251744</EPOCH><MEAN_MOTION>13.14503595</MEAN_MOTION><ECCENTRICITY>.0001729</ECCENTRICITY><INCLINATION>87.9084</INCLINATION><RA_OF_ASC_NODE>12.5830</RA_OF_ASC_NODE><ARG_OF_PERICENTER>82.2114</ARG_OF_PERICENTER><MEAN_ANOMALY>277.9212</MEAN_ANOMALY></meanElements><tleParameters><EPHEMERIS_TYPE>0</EPHEMERIS_TYPE><CLASSIFICATION_TYPE>U</CLASSIFICATION_TYPE><NORAD_CAT_ID>48244</NORAD_CAT_ID><ELEMENT_SET_NO>999</ELEMENT_SET_NO><REV_AT_EPOCH>19349</REV_AT_EPOCH><BSTAR>.36897E-3</BSTAR><MEAN_MOTION_DOT>.15E-5</MEAN_MOTION_DOT><MEAN_MOTION_DDOT>0</MEAN_MOTION_DDOT></tleParameters></data></segment></body></omm>
<omm id="CCSDS_OMM_VERS" version="2.0">
<header><CREATION_DATE/><ORIGINATOR/></header><body><segment><metadata><OBJECT_NAME>ONEWEB-0217</OBJECT_NAME><OBJECT_ID>2021-031AM</OBJECT_ID><CENTER_NAME>EARTH</CENTER_NAME><REF_FRAME>TEME</REF_FRAME><TIME_SYSTEM>UTC</TIME_SYSTEM><MEAN_ELEMENT_THEORY>SGP4</MEAN_ELEMENT_THEORY></metadata><data><meanElements><EPOCH>2025-04-26T05:48:48.849120</EPOCH><MEAN_MOTION>13.14501551</MEAN_MOTION><ECCENTRICITY>.0001537</ECCENTRICITY><INCLINATION>87.9084</INCLINATION><RA_OF_ASC_NODE>12.6097</RA_OF_ASC_NODE><ARG_OF_PERICENTER>83.4055</ARG_OF_PERICENTER><MEAN_ANOMALY>276.7250</MEAN_ANOMALY></meanElements><tleParameters><EPHEMERIS_TYPE>0</EPHEMERIS_TYPE><CLASSIFICATION_TYPE>U</CLASSIFICATION_TYPE><NORAD_CAT_ID>48245</NORAD_CAT_ID><ELEMENT_SET_NO>999</ELEMENT_SET_NO><REV_AT_EPOCH>19341</REV_AT_EPOCH><BSTAR>.58408E-3</BSTAR><MEAN_MOTION_DOT>.229E-5</MEAN_MOTION_DOT><MEAN_MOTION_DDOT>0</MEAN_MOTION_DDOT></tleParameters></data></segment></body></omm>

</ndm>
